[{"OBJECT_NAME":"STARLINK-1290","OBJECT_ID":"2020-019AJ","EPOCH":"2024-01-02T09:02:13.676352","MEAN_MOTION":15.60233522,"ECCENTRICITY":0.0002743,"INCLINATION":52.9774,"RA_OF_ASC_NODE":2.1796,"ARG_OF_PERICENTER":76.0149,"MEAN_ANOMALY":284.1167,"EPHEMERIS_TYPE":0,"CLASSIFICATION_TYPE":"U","NORAD_CAT_ID":45392,"ELEMENT_SET_NO":999,"REV_AT_EPOCH":21120,"BSTAR":0.00061112,"MEAN_MOTION_DOT":0.00050568,"MEAN_MOTION_DDOT":0},{"OBJECT_NAME":"STARLINK-1291","OBJECT_ID":"2020-019AK","EPOCH":"2024-01-02T16:55:41.515968","MEAN_MOTION":15.06409351,"ECCENTRICITY":0.0001297,"INCLINATION":53.0542,"RA_OF_ASC_NODE":124.4189,"ARG_OF_PERICENTER":96.2057,"MEAN_ANOMALY":263.908,"EPHEMERIS_TYPE":0,"CLASSIFICATION_TYPE":"U","NORAD_CAT_ID":45393,"ELEMENT_SET_NO":999,"REV_AT_EPOCH":20964,"BSTAR":4.7339e-5,"MEAN_MOTION_DOT":4.24e-6,"MEAN_MOTION_DDOT":0},{"OBJECT_NAME":"STARLINK-1292","OBJECT_ID":"2020-019AL","EPOCH":"2024-01-02T14:27:04.827744","MEAN_MOTION":15.06406608,"ECCENTRICITY":0.0001462,"INCLINATION":53.0551,"RA_OF_ASC_NODE":124.8847,"ARG_OF_PERICENTER":71.2895,"MEAN_ANOMALY":288.8252,"EPHEMERIS_TYPE":0,"CLASSIFICATION_TYPE":"U","NORAD_CAT_ID":45394,"ELEMENT_SET_NO":999,"REV_AT_EPOCH":20960,"BSTAR":9.7867e-5,"MEAN_MOTION_DOT":1.177e-5,"MEAN_MOTION_DDOT":0},{"OBJECT_NAME":"STARLINK-1297","OBJECT_ID":"2020-019AM","EPOCH":"2024-01-02T15:09:32.553792","MEAN_MOTION":15.06406958,"ECCENTRICITY":0.0001314,"INCLINATION":53.054,"RA_OF_ASC_NODE":124.7504,"ARG_OF_PERICENTER":92.5898,"MEAN_ANOMALY":267.5242,"EPHEMERIS_TYPE":0,"CLASSIFICATION_TYPE":"U","NORAD_CAT_ID":45395,"ELEMENT_SET_NO":999,"REV_AT_EPOCH":20905,"BSTAR":5.4383e-5,"MEAN_MOTION_DOT":5.29e-6,"MEAN_MOTION_DDOT":0},{"OBJECT_NAME":"STARLINK-1303","OBJECT_ID":"2020-019AN","EPOCH":"2024-01-02T14:42:59.920128","MEAN_MOTION":15.06417949,"ECCENTRICITY":0.0001423,"INCLINATION":53.0546,"RA_OF_ASC_NODE":124.8349,"ARG_OF_PERICENTER":89.9138,"MEAN_ANOMALY":270.2014,"EPHEMERIS_TYPE":0,"CLASSIFICATION_TYPE":"U","NORAD_CAT_ID":45396,"ELEMENT_SET_NO":999,"REV_AT_EPOCH":20958,"BSTAR":7.1404e-5,"MEAN_MOTION_DOT":7.83e-6,"MEAN_MOTION_DDOT":0},{"OBJECT_NAME":"STARLINK-1307","OBJECT_ID":"2020-019AP","EPOCH":"2024-01-02T13:23:23.219232","MEAN_MOTION":15.06407193,"ECCENTRICITY":0.0001217,"INCLINATION":53.0534,"RA_OF_ASC_NODE":125.0831,"ARG_OF_PERICENTER":100.6103,"MEAN_ANOMALY":259.5023,"EPHEMERIS_TYPE":0,"CLASSIFICATION_TYPE":"U","NORAD_CAT_ID":45397,"ELEMENT_SET_NO":999,"REV_AT_EPOCH":20968,"BSTAR":1.9739e-5,"MEAN_MOTION_DOT":1.3e-7,"MEAN_MOTION_DDOT":0},{"OBJECT_NAME":"STARLINK-1312","OBJECT_ID":"2020-019AQ","EPOCH":"2024-01-02T14:48:19.296864","MEAN_MOTION":15.06404485,"ECCENTRICITY":0.0001402,"INCLINATION":53.0536,"RA_OF_ASC_NODE":124.8187,"ARG_OF_PERICENTER":94.2418,"MEAN_ANOMALY":265.8732,"EPHEMERIS_TYPE":0,"CLASSIFICATION_TYPE":"U","NORAD_CAT_ID":45398,"ELEMENT_SET_NO":999,"REV_AT_EPOCH":20962,"BSTAR":0.00034378,"MEAN_MOTION_DOT":4.843e-5,"MEAN_MOTION_DDOT":0},{"OBJECT_NAME":"STARLINK-1255","OBJECT_ID":"2020-019AR","EPOCH":"2024-01-02T17:23:33.146880","MEAN_MOTION":15.06408834,"ECCENTRICITY":0.0001188,"INCLINATION":53.055,"RA_OF_ASC_NODE":114.3352,"ARG_OF_PERICENTER":95.4477,"MEAN_ANOMALY":264.6648,"EPHEMERIS_TYPE":0,"CLASSIFICATION_TYPE":"U","NORAD_CAT_ID":45399,"ELEMENT_SET_NO":999,"REV_AT_EPOCH":20983,"BSTAR":0.00011886,"MEAN_MOTION_DOT":1.49e-5,"MEAN_MOTION_DDOT":0},{"OBJECT_NAME":"STARLINK-1213","OBJECT_ID":"2020-019AS","EPOCH":"2024-01-02T13:07:52.718016","MEAN_MOTION":15.22374489,"ECCENTRICITY":0.000303,"INCLINATION":53.0704,"RA_OF_ASC_NODE":96.4994,"ARG_OF_PERICENTER":108.9598,"MEAN_ANOMALY":251.1727,"EPHEMERIS_TYPE":0,"CLASSIFICATION_TYPE":"U","NORAD_CAT_ID":45400,"ELEMENT_SET_NO":999,"REV_AT_EPOCH":21000,"BSTAR":0.00035373,"MEAN_MOTION_DOT":7.949e-5,"MEAN_MOTION_DDOT":0},{"OBJECT_NAME":"STARLINK-1256","OBJECT_ID":"2020-019AT","EPOCH":"2024-01-02T17:39:29.303712","MEAN_MOTION":15.06412202,"ECCENTRICITY":0.0001163,"INCLINATION":53.0557,"RA_OF_ASC_NODE":114.2761,"ARG_OF_PERICENTER":111.6716,"MEAN_ANOMALY":248.4397,"EPHEMERIS_TYPE":0,"CLASSIFICATION_TYPE":"U","NORAD_CAT_ID":45401,"ELEMENT_SET_NO":999,"REV_AT_EPOCH":20983,"BSTAR":7.2654e-5,"MEAN_MOTION_DOT":8.01e-6,"MEAN_MOTION_DDOT":0},{"OBJECT_NAME":"STARLINK-1259","OBJECT_ID":"2020-019AV","EPOCH":"2024-01-02T16:19:51.724992","MEAN_MOTION":15.06409583,"ECCENTRICITY":0.0001198,"INCLINATION":53.0538,"RA_OF_ASC_NODE":114.5309,"ARG_OF_PERICENTER":97.3035,"MEAN_ANOMALY":262.809,"EPHEMERIS_TYPE":0,"CLASSIFICATION_TYPE":"U","NORAD_CAT_ID":45403,"ELEMENT_SET_NO":999,"REV_AT_EPOCH":20982,"BSTAR":9.3899e-5,"MEAN_MOTION_DOT":1.118e-5,"MEAN_MOTION_DDOT":0},{"OBJECT_NAME":"STARLINK-1260","OBJECT_ID":"2020-019AW","EPOCH":"2024-01-02T15:00:15.459552","MEAN_MOTION":15.06406643,"ECCENTRICITY":0.0001279,"INCLINATION":53.0543,"RA_OF_ASC_NODE":114.7802,"ARG_OF_PERICENTER":89.416,"MEAN_ANOMALY":270.6976,"EPHEMERIS_TYPE":0,"CLASSIFICATION_TYPE":"U","NORAD_CAT_ID":45404,"ELEMENT_SET_NO":999,"REV_AT_EPOCH":20972,"BSTAR":0.00027785,"MEAN_MOTION_DOT":3.86e-5,"MEAN_MOTION_DDOT":0},{"OBJECT_NAME":"STARLINK-1263","OBJECT_ID":"2020-019AX","EPOCH":"2024-01-02T14:39:01.112256","MEAN_MOTION":15.06409829,"ECCENTRICITY":0.00012,"INCLINATION":53.0542,"RA_OF_ASC_NODE":114.8475,"ARG_OF_PERICENTER":86.9368,"MEAN_ANOMALY":273.1759,"EPHEMERIS_TYPE":0,"CLASSIFICATION_TYPE":"U","NORAD_CAT_ID":45405,"ELEMENT_SET_NO":999,"REV_AT_EPOCH":20972,"BSTAR":0.00013859,"MEAN_MOTION_DOT":1.784e-5,"MEAN_MOTION_DDOT":0},{"OBJECT_NAME":"STARLINK-1265","OBJECT_ID":"2020-019AY","EPOCH":"2024-01-02T14:49:38.161920","MEAN_MOTION":15.06411338,"ECCENTRICITY":0.0001552,"INCLINATION":53.0538,"RA_OF_ASC_NODE":114.8117,"ARG_OF_PERICENTER":97.1553,"MEAN_ANOMALY":262.9613,"EPHEMERIS_TYPE":0,"CLASSIFICATION_TYPE":"U","NORAD_CAT_ID":45406,"ELEMENT_SET_NO":999,"REV_AT_EPOCH":20972,"BSTAR":7.3042e-5,"MEAN_MOTION_DOT":8.07e-6,"MEAN_MOTION_DDOT":0},{"OBJECT_NAME":"STARLINK-1275","OBJECT_ID":"2020-019AZ","EPOCH":"2024-01-02T16:45:03.026016","MEAN_MOTION":15.06411698,"ECCENTRICITY":0.0001412,"INCLINATION":53.0534,"RA_OF_ASC_NODE":114.4551,"ARG_OF_PERICENTER":70.3251,"MEAN_ANOMALY":289.789,"EPHEMERIS_TYPE":0,"CLASSIFICATION_TYPE":"U","NORAD_CAT_ID":45407,"ELEMENT_SET_NO":999,"REV_AT_EPOCH":20973,"BSTAR":0.00032718,"MEAN_MOTION_DOT":4.597e-5,"MEAN_MOTION_DDOT":0},{"OBJECT_NAME":"STARLINK-1278","OBJECT_ID":"2020-019BA","EPOCH":"2024-01-02T17:03:40.140000","MEAN_MOTION":15.06405768,"ECCENTRICITY":0.000128,"INCLINATION":53.0533,"RA_OF_ASC_NODE":144.3967,"ARG_OF_PERICENTER":79.2031,"MEAN_ANOMALY":280.9102,"EPHEMERIS_TYPE":0,"CLASSIFICATION_TYPE":"U","NORAD_CAT_ID":45408,"ELEMENT_SET_NO":999,"REV_AT_EPOCH":20932,"BSTAR":0.00021138,"MEAN_MOTION_DOT":2.869e-5,"MEAN_MOTION_DDOT":0},{"OBJECT_NAME":"STARLINK-1282","OBJECT_ID":"2020-019BB","EPOCH":"2024-01-02T13:45:56.439360","MEAN_MOTION":15.06413512,"ECCENTRICITY":0.0001294,"INCLINATION":53.0544,"RA_OF_ASC_NODE":115.0113,"ARG_OF_PERICENTER":74.5266,"MEAN_ANOMALY":285.5865,"EPHEMERIS_TYPE":0,"CLASSIFICATION_TYPE":"U","NORAD_CAT_ID":45409,"ELEMENT_SET_NO":999,"REV_AT_EPOCH":20972,"BSTAR":9.5412e-5,"MEAN_MOTION_DOT":1.14e-5,"MEAN_MOTION_DDOT":0},{"OBJECT_NAME":"STARLINK-1293","OBJECT_ID":"2020-019BD","EPOCH":"2024-01-02T12:31:38.769600","MEAN_MOTION":15.06395415,"ECCENTRICITY":0.0001353,"INCLINATION":53.0536,"RA_OF_ASC_NODE":115.2439,"ARG_OF_PERICENTER":114.4337,"MEAN_ANOMALY":245.6794,"EPHEMERIS_TYPE":0,"CLASSIFICATION_TYPE":"U","NORAD_CAT_ID":45411,"ELEMENT_SET_NO":999,"REV_AT_EPOCH":20971,"BSTAR":-2.6976e-5,"MEAN_MOTION_DOT":-6.83e-6,"MEAN_MOTION_DDOT":0},{"OBJECT_NAME":"STARLINK-1296","OBJECT_ID":"2020-019BE","EPOCH":"2024-01-02T14:54:56.628864","MEAN_MOTION":15.0640911,"ECCENTRICITY":0.0001403,"INCLINATION":53.0544,"RA_OF_ASC_NODE":114.7968,"ARG_OF_PERICENTER":75.6057,"MEAN_ANOMALY":284.5088,"EPHEMERIS_TYPE":0,"CLASSIFICATION_TYPE":"U","NORAD_CAT_ID":45412,"ELEMENT_SET_NO":999,"REV_AT_EPOCH":20972,"BSTAR":8.1058e-5,"MEAN_MOTION_DOT":9.26e-6,"MEAN_MOTION_DDOT":0},{"OBJECT_NAME":"STARLINK-1298","OBJECT_ID":"2020-019BF","EPOCH":"2024-01-02T12:26:19.592448","MEAN_MOTION":15.06409711,"ECCENTRICITY":0.0001277,"INCLINATION":53.0552,"RA_OF_ASC_NODE":115.2637,"ARG_OF_PERICENTER":75.8873,"MEAN_ANOMALY":284.2258,"EPHEMERIS_TYPE":0,"CLASSIFICATION_TYPE":"U","NORAD_CAT_ID":45413,"ELEMENT_SET_NO":999,"REV_AT_EPOCH":20980,"BSTAR":0.00012949,"MEAN_MOTION_DOT":1.648e-5,"MEAN_MOTION_DDOT":0},{"OBJECT_NAME":"STARLINK-1309","OBJECT_ID":"2020-019BG","EPOCH":"2024-01-02T13:40:38.199648","MEAN_MOTION":15.06406376,"ECCENTRICITY":0.0001418,"INCLINATION":53.055,"RA_OF_ASC_NODE":115.0258,"ARG_OF_PERICENTER":67.5139,"MEAN_ANOMALY":292.6,"EPHEMERIS_TYPE":0,"CLASSIFICATION_TYPE":"U","NORAD_CAT_ID":45414,"ELEMENT_SET_NO":999,"REV_AT_EPOCH":20970,"BSTAR":7.8162e-5,"MEAN_MOTION_DOT":8.83e-6,"MEAN_MOTION_DDOT":0},{"OBJECT_NAME":"STARLINK-1316","OBJECT_ID":"2020-019BH","EPOCH":"2024-01-02T14:17:47.314464","MEAN_MOTION":15.06407968,"ECCENTRICITY":0.0001385,"INCLINATION":53.0546,"RA_OF_ASC_NODE":114.9127,"ARG_OF_PERICENTER":88.2176,"MEAN_ANOMALY":271.8972,"EPHEMERIS_TYPE":0,"CLASSIFICATION_TYPE":"U","NORAD_CAT_ID":45415,"ELEMENT_SET_NO":999,"REV_AT_EPOCH":20974,"BSTAR":0.00015646,"MEAN_MOTION_DOT":2.05e-5,"MEAN_MOTION_DDOT":0},{"OBJECT_NAME":"STARLINK-1318","OBJECT_ID":"2020-019BJ","EPOCH":"2024-01-02T15:05:34.558080","MEAN_MOTION":15.06351562,"ECCENTRICITY":0.000137,"INCLINATION":53.0538,"RA_OF_ASC_NODE":114.7633,"ARG_OF_PERICENTER":93.6334,"MEAN_ANOMALY":266.4812,"EPHEMERIS_TYPE":0,"CLASSIFICATION_TYPE":"U","NORAD_CAT_ID":45416,"ELEMENT_SET_NO":999,"REV_AT_EPOCH":20973,"BSTAR":0.00083292,"MEAN_MOTION_DOT":0.0001213,"MEAN_MOTION_DDOT":0}]
